STARLINK-2452           
1 48115U 21027Z   26068.53345101  .00009162  00000+0  32089-3 0  9997
2 48115  53.1595 155.6625 0001347  95.7701 264.3453 15.30217566272625
CS2                     
1 49262U 21088C   26068.73485932  .00018033  00000+0  56178-3 0  9999
2 49262  97.3928 134.2907 0011637  82.3491 277.9072 15.33255930245263
